{
  "type": "FeatureCollection",
  "features": [
    {
      "type": "Feature",
      "properties": {
        "norad_id": 43706,
        "name": "BEIDOU-3 M17 (C36)",
        "group": "beidou",
        "lat": -48.4166373957694,
        "lon": 133.6927160968125,
        "alt_km": 21517.413338991348,
        "timestamp": "2025-12-24T03:53:29.912705+00:00",
        "meta_object_name": "BEIDOU-3 M17 (C36)",
        "meta_object_id": "2018-093A",
        "meta_epoch": "2025-12-22T11:03:17.644896",
        "meta_mean_motion": 1.86228432,
        "meta_eccentricity": 0.00060427,
        "meta_inclination": 54.173,
        "meta_ra_of_asc_node": 188.2918,
        "meta_arg_of_pericenter": 307.405,
        "meta_mean_anomaly": 284.4943,
        "meta_ephemeris_type": 0,
        "meta_classification_type": "U",
        "meta_norad_cat_id": 43706,
        "meta_element_set_no": 999,
        "meta_rev_at_epoch": 4824,
        "meta_bstar": 0,
        "meta_mean_motion_dot": 9.4e-07,
        "meta_mean_motion_ddot": 0,
        "tle_line1": "1 43706U 18093A   25356.46062089  .00000094  00000+0  00000+0 0  9998",
        "tle_line2": "2 43706  54.1730 188.2918 0006042 307.4050 284.4943  1.86228432 48248"
      },
      "geometry": {
        "type": "Point",
        "coordinates": [
          133.6927160968125,
          -48.4166373957694
        ]
      }
    },
    {
      "type": "Feature",
      "properties": {
        "norad_id": 43707,
        "name": "BEIDOU-3 M18 (C37)",
        "group": "beidou",
        "lat": 20.424272616699913,
        "lon": -156.15785559423676,
        "alt_km": 21511.260849723814,
        "timestamp": "2025-12-24T03:53:29.912717+00:00",
        "meta_object_name": "BEIDOU-3 M18 (C37)",
        "meta_object_id": "2018-093B",
        "meta_epoch": "2025-12-20T21:39:28.587744",
        "meta_mean_motion": 1.86226757,
        "meta_eccentricity": 0.00062168,
        "meta_inclination": 54.1741,
        "meta_ra_of_asc_node": 188.3365,
        "meta_arg_of_pericenter": 353.7926,
        "meta_mean_anomaly": 6.2524,
        "meta_ephemeris_type": 0,
        "meta_classification_type": "U",
        "meta_norad_cat_id": 43707,
        "meta_element_set_no": 999,
        "meta_rev_at_epoch": 4821,
        "meta_bstar": 0,
        "meta_mean_motion_dot": 9.5e-07,
        "meta_mean_motion_ddot": 0,
        "tle_line1": "1 43707U 18093B   25354.90241421  .00000095  00000+0  00000+0 0  9996",
        "tle_line2": "2 43707  54.1741 188.3365 0006216 353.7926   6.2524  1.86226757 48217"
      },
      "geometry": {
        "type": "Point",
        "coordinates": [
          -156.15785559423676,
          20.424272616699913
        ]
      }
    },
    {
      "type": "Feature",
      "properties": {
        "norad_id": 44231,
        "name": "BEIDOU-2 G8 (C01)",
        "group": "beidou",
        "lat": -1.1304735091790121,
        "lon": -64.25736580197918,
        "alt_km": 35757.754805028206,
        "timestamp": "2025-12-24T03:53:29.912728+00:00",
        "meta_object_name": "BEIDOU-2 G8 (C01)",
        "meta_object_id": "2019-027A",
        "meta_epoch": "2025-12-23T20:40:01.141248",
        "meta_mean_motion": 1.0027506,
        "meta_eccentricity": 0.0008301,
        "meta_inclination": 1.6883,
        "meta_ra_of_asc_node": 74.7343,
        "meta_arg_of_pericenter": 259.1032,
        "meta_mean_anomaly": 213.3102,
        "meta_ephemeris_type": 0,
        "meta_classification_type": "U",
        "meta_norad_cat_id": 44231,
        "meta_element_set_no": 999,
        "meta_rev_at_epoch": 2432,
        "meta_bstar": 0,
        "meta_mean_motion_dot": -2.26e-06,
        "meta_mean_motion_ddot": 0,
        "tle_line1": "1 44231U 19027A   25357.86112432 -.00000226  00000+0  00000+0 0  9991",
        "tle_line2": "2 44231   1.6883  74.7343 0008301 259.1032 213.3102  1.00275060 24328"
      },
      "geometry": {
        "type": "Point",
        "coordinates": [
          -64.25736580197918,
          -1.1304735091790121
        ]
      }
    },
    {
      "type": "Feature",
      "properties": {
        "norad_id": 44337,
        "name": "BEIDOU-3 IGSO-2 (C39)",
        "group": "beidou",
        "lat": 50.5351528493939,
        "lon": -77.23851841794296,
        "alt_km": 35788.05553438763,
        "timestamp": "2025-12-24T03:53:29.912741+00:00",
        "meta_object_name": "BEIDOU-3 IGSO-2 (C39)",
        "meta_object_id": "2019-035A",
        "meta_epoch": "2025-12-23T20:34:24.431808",
        "meta_mean_motion": 1.00267916,
        "meta_eccentricity": 0.0037802,
        "meta_inclination": 55.2291,
        "meta_ra_of_asc_node": 160.4037,
        "meta_arg_of_pericenter": 202.4581,
        "meta_mean_anomaly": 157.7229,
        "meta_ephemeris_type": 0,
        "meta_classification_type": "U",
        "meta_norad_cat_id": 44337,
        "meta_element_set_no": 999,
        "meta_rev_at_epoch": 2391,
        "meta_bstar": 0,
        "meta_mean_motion_dot": -7.4e-07,
        "meta_mean_motion_ddot": 0,
        "tle_line1": "1 44337U 19035A   25357.85722722 -.00000074  00000+0  00000+0 0  9996",
        "tle_line2": "2 44337  55.2291 160.4037 0037802 202.4581 157.7229  1.00267916 23910"
      },
      "geometry": {
        "type": "Point",
        "coordinates": [
          -77.23851841794296,
          50.5351528493939
        ]
      }
    },
    {
      "type": "Feature",
      "properties": {
        "norad_id": 44542,
        "name": "BEIDOU-3 M24 (C46)",
        "group": "beidou",
        "lat": -17.80116682489937,
        "lon": 175.3286024159706,
        "alt_km": 21512.811738887973,
        "timestamp": "2025-12-24T03:53:29.912752+00:00",
        "meta_object_name": "BEIDOU-3 M24 (C46)",
        "meta_object_id": "2019-061A",
        "meta_epoch": "2025-12-23T15:47:40.430112",
        "meta_mean_motion": 1.86229437,
        "meta_eccentricity": 0.0009591,
        "meta_inclination": 54.4006,
        "meta_ra_of_asc_node": 188.6475,
        "meta_arg_of_pericenter": 26.0313,
        "meta_mean_anomaly": 334.0556,
        "meta_ephemeris_type": 0,
        "meta_classification_type": "U",
        "meta_norad_cat_id": 44542,
        "meta_element_set_no": 999,
        "meta_rev_at_epoch": 4252,
        "meta_bstar": 0,
        "meta_mean_motion_dot": 9.9e-07,
        "meta_mean_motion_ddot": 0,
        "tle_line1": "1 44542U 19061A   25357.65810683  .00000099  00000+0  00000+0 0  9991",
        "tle_line2": "2 44542  54.4006 188.6475 0009591  26.0313 334.0556  1.86229437 42529"
      },
      "geometry": {
        "type": "Point",
        "coordinates": [
          175.3286024159706,
          -17.80116682489937
        ]
      }
    },
    {
      "type": "Feature",
      "properties": {
        "norad_id": 44543,
        "name": "BEIDOU-3 M23 (C45)",
        "group": "beidou",
        "lat": -50.078113523700004,
        "lon": 67.53894196413357,
        "alt_km": 21546.028180640868,
        "timestamp": "2025-12-24T03:53:29.912763+00:00",
        "meta_object_name": "BEIDOU-3 M23 (C45)",
        "meta_object_id": "2019-061B",
        "meta_epoch": "2025-12-22T04:16:38.631360",
        "meta_mean_motion": 1.86227761,
        "meta_eccentricity": 0.00060882,
        "meta_inclination": 54.3995,
        "meta_ra_of_asc_node": 188.6659,
        "meta_arg_of_pericenter": 26.1092,
        "meta_mean_anomaly": 334.4978,
        "meta_ephemeris_type": 0,
        "meta_classification_type": "U",
        "meta_norad_cat_id": 44543,
        "meta_element_set_no": 999,
        "meta_rev_at_epoch": 4250,
        "meta_bstar": 0,
        "meta_mean_motion_dot": 9.4e-07,
        "meta_mean_motion_ddot": 0,
        "tle_line1": "1 44543U 19061B   25356.17822490  .00000094  00000+0  00000+0 0  9992",
        "tle_line2": "2 44543  54.3995 188.6659 0006088  26.1092 334.4978  1.86227761 42501"
      },
      "geometry": {
        "type": "Point",
        "coordinates": [
          67.53894196413357,
          -50.078113523700004
        ]
      }
    },
    {
      "type": "Feature",
      "properties": {
        "norad_id": 44793,
        "name": "BEIDOU-3 M22 (C44)",
        "group": "beidou",
        "lat": 53.84837831321223,
        "lon": 28.03053278826391,
        "alt_km": 21513.486595956914,
        "timestamp": "2025-12-24T03:53:29.912775+00:00",
        "meta_object_name": "BEIDOU-3 M22 (C44)",
        "meta_object_id": "2019-078A",
        "meta_epoch": "2025-12-22T23:04:03.320256",
        "meta_mean_motion": 1.86232206,
        "meta_eccentricity": 0.00060944,
        "meta_inclination": 54.0989,
        "meta_ra_of_asc_node": 306.0279,
        "meta_arg_of_pericenter": 24.0205,
        "meta_mean_anomaly": 336.0117,
        "meta_ephemeris_type": 0,
        "meta_classification_type": "U",
        "meta_norad_cat_id": 44793,
        "meta_element_set_no": 999,
        "meta_rev_at_epoch": 4136,
        "meta_bstar": 0,
        "meta_mean_motion_dot": -5.4e-07,
        "meta_mean_motion_ddot": 0,
        "tle_line1": "1 44793U 19078A   25356.96114954 -.00000054  00000+0  00000+0 0  9990",
        "tle_line2": "2 44793  54.0989 306.0279 0006094  24.0205 336.0117  1.86232206 41368"
      },
      "geometry": {
        "type": "Point",
        "coordinates": [
          28.03053278826391,
          53.84837831321223
        ]
      }
    }
  ]
}